GORIZONT 25             
1 21922U 92017A   09120.93332823  .00000095  00000-0  10000-3 0  1844
2 21922  11.4067  42.8595 0027608 296.6110  63.0370  0.99851072 62477
GORIZONT 26             
1 22041U 92043A   09120.76283580 -.00000067  00000-0  10000-3 0  8197
2 22041  11.2633  44.2184 0028058 101.3591 258.8779  0.99240478 61403
GORIZONT 27             
1 22245U 92082A   09122.07620866 -.00000160  00000-0  10000-3 0  4419
2 22245  11.1756  45.3646 0014858 226.9306 132.8750  1.00228289 64480
GORIZONT 28             
1 22880U 93069A   09121.77206080 -.00000179  00000-0  10000-3 0  1512
2 22880  10.6936  48.6934 0032641 355.2261  16.0712  0.99649742 56807
GORIZONT 29             
1 22907U 93072A   09122.08234688 -.00000159  00000-0  10000-3 0  6553
2 22907  10.6715  48.8006 0012799 207.2632 152.5951  1.00170314 56565
GORIZONT 30             
1 23108U 94030A   09119.59779763 -.00000182  00000-0  10000-3 0  4826
2 23108  10.5085  50.1452 0001050 193.0422 166.8662  1.00295284 54745
GORIZONT 31             
1 23775U 96005A   09121.31430666 -.00000097  00000-0  10000-3 0  8176
2 23775   9.4630  55.9136 0018667  65.1558 294.9571  0.99881253 48560
GORIZONT 32             
1 23880U 96034A   09122.00335115 -.00000122  00000-0  10000-3 0  1986
2 23880   9.3261  57.0267 0002361 307.3603 203.2972  1.00271893 47372
GORIZONT 33             
1 26372U 00029A   09121.67884193  .00000120  00000-0  10000-3 0  5993
2 26372   6.5704  66.0945 0002432 296.2078 126.0669  1.00197935 32706
